GSID,Name,Type,GradeRange,Enrollment,Gsrating,ParentRating,City,State,DistrictId,District,DistrictNCESID,Address,Phone,fax,Website,ncesid,Lat,Long,OverviewLink,RatingLink,ReviewLink,SchoolStatLink,
5661,ACAD OF ENVT SCI/MATH ELEM,public,PK-5,290,2,,Saint Louis,MO,458,St. Louis City School District,2929280,"3325 Bell Avenue, \nSaint Louis, MO  63106",(314) 932-1464,,,292928003211,38.64222,-90.22613,https://www.greatschools.org/missouri/saint-louis/5661-ACAD-OF-ENVT-SCI-MATH-ELEM/?utm_source=GSAPI&amp;utm_medium=referral,https://www.greatschools.org/missouri/saint-louis/5661-ACAD-OF-ENVT-SCI-MATH-ELEM/?utm_source=GSAPI&amp;utm_medium=referral,https://www.greatschools.org/missouri/saint-louis/5661-ACAD-OF-ENVT-SCI-MATH-ELEM/?utm_source=GSAPI&amp;utm_medium=referral#Reviews,https://www.greatschools.org/missouri/saint-louis/5661-ACAD-OF-ENVT-SCI-MATH-ELEM/?utm_source=GSAPI&amp;utm_medium=referral,</school><school>
3031,Adams Elementary School,public,PK-6,301,2,3,Saint Louis,MO,458,St. Louis City School District,2929280,"1311 Tower Grove Ave, \nSaint Louis, MO  63110",(314) 535-3910,(314) 535-3949,www.SLPS.org/Adams,292928002789,38.6247,-90.2567,https://www.greatschools.org/missouri/saint-louis/3031-Adams-Elementary-School/?utm_source=GSAPI&amp;utm_medium=referral,https://www.greatschools.org/missouri/saint-louis/3031-Adams-Elementary-School/?utm_source=GSAPI&amp;utm_medium=referral,https://www.greatschools.org/missouri/saint-louis/3031-Adams-Elementary-School/?utm_source=GSAPI&amp;utm_medium=referral#Reviews,https://www.greatschools.org/missouri/saint-louis/3031-Adams-Elementary-School/?utm_source=GSAPI&amp;utm_medium=referral,</school><school>
2077,Ames Visual/Perf. Arts,public,PK-5,402,4,4,Saint Louis,MO,458,St. Louis City School District,2929280,"2900 Hadley Street, \nSaint Louis, MO  63107",(314) 241-7165,(314) 231-1607,,292928002570,38.652905,-90.19539,https://www.greatschools.org/missouri/saint-louis/2077-Ames-Visual-Perf.-Arts/?utm_source=GSAPI&amp;utm_medium=referral,https://www.greatschools.org/missouri/saint-louis/2077-Ames-Visual-Perf.-Arts/?utm_source=GSAPI&amp;utm_medium=referral,https://www.greatschools.org/missouri/saint-louis/2077-Ames-Visual-Perf.-Arts/?utm_source=GSAPI&amp;utm_medium=referral#Reviews,https://www.greatschools.org/missouri/saint-louis/2077-Ames-Visual-Perf.-Arts/?utm_source=GSAPI&amp;utm_medium=referral,</school><school>
3299,Arrowpoint Elementary School,public,PK-5,565,1,3,Saint Louis,MO,194,Hazelwood School District,2913830,"2017 Arrowpoint Drive, \nSaint Louis, MO  63138",(314) 953-5300,(314) 953-5313,http://www.hazelwoodschools.org/arrowpoint,291383002858,38.81229,-90.22734,https://www.greatschools.org/missouri/saint-louis/3299-Arrowpoint-Elementary-School/?utm_source=GSAPI&amp;utm_medium=referral,https://www.greatschools.org/missouri/saint-louis/3299-Arrowpoint-Elementary-School/?utm_source=GSAPI&amp;utm_medium=referral,https://www.greatschools.org/missouri/saint-louis/3299-Arrowpoint-Elementary-School/?utm_source=GSAPI&amp;utm_medium=referral#Reviews,https://www.greatschools.org/missouri/saint-louis/3299-Arrowpoint-Elementary-School/?utm_source=GSAPI&amp;utm_medium=referral,</school><school>
1989,Ashland Elementary And Br.,public,PK-6,334,1,3,Saint Louis,MO,458,St. Louis City School District,2929280,"3921 North Newstead Avenue, \nSaint Louis, MO  63115",(314) 385-4767,(314) 385-6129,,292928001877,38.67151,-90.235985,https://www.greatschools.org/missouri/saint-louis/1989-Ashland-Elementary-And-Br./?utm_source=GSAPI&amp;utm_medium=referral,https://www.greatschools.org/missouri/saint-louis/1989-Ashland-Elementary-And-Br./?utm_source=GSAPI&amp;utm_medium=referral,https://www.greatschools.org/missouri/saint-louis/1989-Ashland-Elementary-And-Br./?utm_source=GSAPI&amp;utm_medium=referral#Reviews,https://www.greatschools.org/missouri/saint-louis/1989-Ashland-Elementary-And-Br./?utm_source=GSAPI&amp;utm_medium=referral,</school><school>
5597,Barack Obama Elementary School,public,1-6,427,3,,Saint Louis,MO,334,Normandy School District,2922650,"3883 Jennings Station Road, \nSaint Louis, MO  63121",(314) 493-0850,,http://www.normandysd.org,292265003189,38.69338,-90.27738,https://www.greatschools.org/missouri/saint-louis/5597-Barack-Obama-Elementary-School/?utm_source=GSAPI&amp;utm_medium=referral,https://www.greatschools.org/missouri/saint-louis/5597-Barack-Obama-Elementary-School/?utm_source=GSAPI&amp;utm_medium=referral,https://www.greatschools.org/missouri/saint-louis/5597-Barack-Obama-Elementary-School/?utm_source=GSAPI&amp;utm_medium=referral#Reviews,https://www.greatschools.org/missouri/saint-louis/5597-Barack-Obama-Elementary-School/?utm_source=GSAPI&amp;utm_medium=referral,</school><school>
178,Bayless Elementary School,public,PK-5,809,5,4,Saint Louis,MO,31,Bayless School District,2904500,"4531 Weber Road, \nSaint Louis, MO  63123",(314) 256-8620,(314) 544-6315,http://baylessk12.org,290450000043,38.55298,-90.30062,https://www.greatschools.org/missouri/saint-louis/178-Bayless-Elementary-School/?utm_source=GSAPI&amp;utm_medium=referral,https://www.greatschools.org/missouri/saint-louis/178-Bayless-Elementary-School/?utm_source=GSAPI&amp;utm_medium=referral,https://www.greatschools.org/missouri/saint-louis/178-Bayless-Elementary-School/?utm_source=GSAPI&amp;utm_medium=referral#Reviews,https://www.greatschools.org/missouri/saint-louis/178-Bayless-Elementary-School/?utm_source=GSAPI&amp;utm_medium=referral,</school><school>
1211,Beasley Elementary School,public,K-5,412,4,4,Saint Louis,MO,294,Mehlville R-Ix School District,2920670,"3131 Koch Road, \nSaint Louis, MO  63125",(314) 467-5400,(314) 467-5499,,292067001109,38.496372,-90.28711,https://www.greatschools.org/missouri/saint-louis/1211-Beasley-Elementary-School/?utm_source=GSAPI&amp;utm_medium=referral,https://www.greatschools.org/missouri/saint-louis/1211-Beasley-Elementary-School/?utm_source=GSAPI&amp;utm_medium=referral,https://www.greatschools.org/missouri/saint-louis/1211-Beasley-Elementary-School/?utm_source=GSAPI&amp;utm_medium=referral#Reviews,https://www.greatschools.org/missouri/saint-louis/1211-Beasley-Elementary-School/?utm_source=GSAPI&amp;utm_medium=referral,</school><school>
571,Bermuda Elementary School,public,K-5,275,1,3,Saint Louis,MO,152,Ferguson-Florissant R-Ii School District,2912010,"5835 Bermuda Drive, \nSaint Louis, MO  63121",(314) 524-4821,(314) 524-4827,http://www.edline.net/pages/Bermuda_Elementary,291201000452,38.72687,-90.294365,https://www.greatschools.org/missouri/saint-louis/571-Bermuda-Elementary-School/?utm_source=GSAPI&amp;utm_medium=referral,https://www.greatschools.org/missouri/saint-louis/571-Bermuda-Elementary-School/?utm_source=GSAPI&amp;utm_medium=referral,https://www.greatschools.org/missouri/saint-louis/571-Bermuda-Elementary-School/?utm_source=GSAPI&amp;utm_medium=referral#Reviews,https://www.greatschools.org/missouri/saint-louis/571-Bermuda-Elementary-School/?utm_source=GSAPI&amp;utm_medium=referral,</school><school>
1213,Bierbaum Elementary School,public,K-5,648,3,4,Saint Louis,MO,294,Mehlville R-Ix School District,2920670,"2050 Union Road, \nSaint Louis, MO  63125",(314) 467-5500,(314) 467-5599,www.bierbaum.org,292067001111,38.530216,-90.30976,https://www.greatschools.org/missouri/saint-louis/1213-Bierbaum-Elementary-School/?utm_source=GSAPI&amp;utm_medium=referral,https://www.greatschools.org/missouri/saint-louis/1213-Bierbaum-Elementary-School/?utm_source=GSAPI&amp;utm_medium=referral,https://www.greatschools.org/missouri/saint-louis/1213-Bierbaum-Elementary-School/?utm_source=GSAPI&amp;utm_medium=referral#Reviews,https://www.greatschools.org/missouri/saint-louis/1213-Bierbaum-Elementary-School/?utm_source=GSAPI&amp;utm_medium=referral,</school><school>
1214,Blades Elementary School,public,K-5,508,4,5,Saint Louis,MO,294,Mehlville R-Ix School District,2920670,"5140 Patterson Road, \nSaint Louis, MO  63129",(314) 467-7300,(314) 467-7399,,292067001112,38.48263,-90.332695,https://www.greatschools.org/missouri/saint-louis/1214-Blades-Elementary-School/?utm_source=GSAPI&amp;utm_medium=referral,https://www.greatschools.org/missouri/saint-louis/1214-Blades-Elementary-School/?utm_source=GSAPI&amp;utm_medium=referral,https://www.greatschools.org/missouri/saint-louis/1214-Blades-Elementary-School/?utm_source=GSAPI&amp;utm_medium=referral#Reviews,https://www.greatschools.org/missouri/saint-louis/1214-Blades-Elementary-School/?utm_source=GSAPI&amp;utm_medium=referral,</school><school>
1995,Bryan Hill Elementary School,public,PK-5,187,1,,Saint Louis,MO,458,St. Louis City School District,2929280,"4342 Aldine Avenue, \nSaint Louis, MO  63113",(314) 534-0370,(314) 535-7864,,292928001888,38.65704,-90.244446,https://www.greatschools.org/missouri/saint-louis/1995-Bryan-Hill-Elementary-School/?utm_source=GSAPI&amp;utm_medium=referral,https://www.greatschools.org/missouri/saint-louis/1995-Bryan-Hill-Elementary-School/?utm_source=GSAPI&amp;utm_medium=referral,https://www.greatschools.org/missouri/saint-louis/1995-Bryan-Hill-Elementary-School/?utm_source=GSAPI&amp;utm_medium=referral#Reviews,https://www.greatschools.org/missouri/saint-louis/1995-Bryan-Hill-Elementary-School/?utm_source=GSAPI&amp;utm_medium=referral,</school><school>
1996,Buder Elementary School,public,PK-5,415,4,3,Saint Louis,MO,458,St. Louis City School District,2929280,"5319 Lansdowne Avenue, \nSaint Louis, MO  63109",(314) 352-4343,(314) 352-3150,http://www.slps.org/,292928001889,38.589,-90.28303,https://www.greatschools.org/missouri/saint-louis/1996-Buder-Elementary-School/?utm_source=GSAPI&amp;utm_medium=referral,https://www.greatschools.org/missouri/saint-louis/1996-Buder-Elementary-School/?utm_source=GSAPI&amp;utm_medium=referral,https://www.greatschools.org/missouri/saint-louis/1996-Buder-Elementary-School/?utm_source=GSAPI&amp;utm_medium=referral#Reviews,https://www.greatschools.org/missouri/saint-louis/1996-Buder-Elementary-School/?utm_source=GSAPI&amp;utm_medium=referral,</school><school>
1999,Clay Elementary School,public,PK-5,151,1,,Saint Louis,MO,458,St. Louis City School District,2929280,"3820 North 14th Street, \nSaint Louis, MO  63107",(314) 231-9608,(314) 231-1660,http://www.slps.org,292928001903,38.663113,-90.19932,https://www.greatschools.org/missouri/saint-louis/1999-Clay-Elementary-School/?utm_source=GSAPI&amp;utm_medium=referral,https://www.greatschools.org/missouri/saint-louis/1999-Clay-Elementary-School/?utm_source=GSAPI&amp;utm_medium=referral,https://www.greatschools.org/missouri/saint-louis/1999-Clay-Elementary-School/?utm_source=GSAPI&amp;utm_medium=referral#Reviews,https://www.greatschools.org/missouri/saint-louis/1999-Clay-Elementary-School/?utm_source=GSAPI&amp;utm_medium=referral,</school><school>
2000,Cole Elementary School,public,PK-8,399,2,4,Saint Louis,MO,458,St. Louis City School District,2929280,"3935 Enright Avenue, \nSaint Louis, MO  63108",(314) 533-0894,(314) 533-4509,http://www.slps.org/,292928001906,38.645164,-90.23821,https://www.greatschools.org/missouri/saint-louis/2000-Cole-Elementary-School/?utm_source=GSAPI&amp;utm_medium=referral,https://www.greatschools.org/missouri/saint-louis/2000-Cole-Elementary-School/?utm_source=GSAPI&amp;utm_medium=referral,https://www.greatschools.org/missouri/saint-louis/2000-Cole-Elementary-School/?utm_source=GSAPI&amp;utm_medium=referral#Reviews,https://www.greatschools.org/missouri/saint-louis/2000-Cole-Elementary-School/?utm_source=GSAPI&amp;utm_medium=referral,</school><school>
2085,Columbia Elementary Community Ed. Center,public,PK-6,151,1,,Saint Louis,MO,458,St. Louis City School District,2929280,"3120 Saint Louis Avenue, \nSaint Louis, MO  63106",(314) 533-2750,(314) 534-4062,,292928002693,38.65354,-90.21903,https://www.greatschools.org/missouri/saint-louis/2085-Columbia-Elementary-Community-Ed.-Center/?utm_source=GSAPI&amp;utm_medium=referral,https://www.greatschools.org/missouri/saint-louis/2085-Columbia-Elementary-Community-Ed.-Center/?utm_source=GSAPI&amp;utm_medium=referral,https://www.greatschools.org/missouri/saint-louis/2085-Columbia-Elementary-Community-Ed.-Center/?utm_source=GSAPI&amp;utm_medium=referral#Reviews,https://www.greatschools.org/missouri/saint-louis/2085-Columbia-Elementary-Community-Ed.-Center/?utm_source=GSAPI&amp;utm_medium=referral,</school><school>
1036,Conway Elementary School,public,K-4,319,,,Saint Louis,MO,246,Ladue School District,2917820,"9900 Conway Road, \nSaint Louis, MO  63124",(314) 993-2878,(314) 994-3988,,291782000942,38.640255,-90.392715,https://www.greatschools.org/missouri/saint-louis/1036-Conway-Elementary-School/?utm_source=GSAPI&amp;utm_medium=referral,https://www.greatschools.org/missouri/saint-louis/1036-Conway-Elementary-School/?utm_source=GSAPI&amp;utm_medium=referral,https://www.greatschools.org/missouri/saint-louis/1036-Conway-Elementary-School/?utm_source=GSAPI&amp;utm_medium=referral#Reviews,https://www.greatschools.org/missouri/saint-louis/1036-Conway-Elementary-School/?utm_source=GSAPI&amp;utm_medium=referral,</school><school>
575,Cool Valley Elementary School,public,K-5,243,3,3,Saint Louis,MO,152,Ferguson-Florissant R-Ii School District,2912010,"1351 South Florissant Road, \nSaint Louis, MO  63121",(314) 521-5622,(314) 521-5624,,291201000457,38.727467,-90.305275,https://www.greatschools.org/missouri/saint-louis/575-Cool-Valley-Elementary-School/?utm_source=GSAPI&amp;utm_medium=referral,https://www.greatschools.org/missouri/saint-louis/575-Cool-Valley-Elementary-School/?utm_source=GSAPI&amp;utm_medium=referral,https://www.greatschools.org/missouri/saint-louis/575-Cool-Valley-Elementary-School/?utm_source=GSAPI&amp;utm_medium=referral#Reviews,https://www.greatschools.org/missouri/saint-louis/575-Cool-Valley-Elementary-School/?utm_source=GSAPI&amp;utm_medium=referral,</school><school>
2002,Cote Brilliante Elementary School,public,PK-6,218,3,2,Saint Louis,MO,458,St. Louis City School District,2929280,"4908 Cote Brilliante Avenue, \nSaint Louis, MO  63113",(314) 531-8680,(314) 531-7910,,292928001911,38.664413,-90.25812,https://www.greatschools.org/missouri/saint-louis/2002-Cote-Brilliante-Elementary-School/?utm_source=GSAPI&amp;utm_medium=referral,https://www.greatschools.org/missouri/saint-louis/2002-Cote-Brilliante-Elementary-School/?utm_source=GSAPI&amp;utm_medium=referral,https://www.greatschools.org/missouri/saint-louis/2002-Cote-Brilliante-Elementary-School/?utm_source=GSAPI&amp;utm_medium=referral#Reviews,https://www.greatschools.org/missouri/saint-louis/2002-Cote-Brilliante-Elementary-School/?utm_source=GSAPI&amp;utm_medium=referral,</school><school>
1490,Craig Elementary School,public,PK-5,472,5,5,Saint Louis,MO,364,Parkway C-2 School District,2923580,"1492 Craig Road, \nSaint Louis, MO  63146",(314) 415-6200,(314) 415-6212,http://www.parkwayschools.net,292358001382,38.684467,-90.44108,https://www.greatschools.org/missouri/saint-louis/1490-Craig-Elementary-School/?utm_source=GSAPI&amp;utm_medium=referral,https://www.greatschools.org/missouri/saint-louis/1490-Craig-Elementary-School/?utm_source=GSAPI&amp;utm_medium=referral,https://www.greatschools.org/missouri/saint-louis/1490-Craig-Elementary-School/?utm_source=GSAPI&amp;utm_medium=referral#Reviews,https://www.greatschools.org/missouri/saint-louis/1490-Craig-Elementary-School/?utm_source=GSAPI&amp;utm_medium=referral,</school><school>
1121,Crestwood Elementary School,public,K-5,463,8,5,Saint Louis,MO,265,Lindbergh Schools,2918690,"1020 Sappington Road, \nSaint Louis, MO  63126",(314) 729-2430,(314) 729-2432,http://go.lindberghschools.ws/Domain/12,291869001018,38.56325,-90.383,https://www.greatschools.org/missouri/saint-louis/1121-Crestwood-Elementary-School/?utm_source=GSAPI&amp;utm_medium=referral,https://www.greatschools.org/missouri/saint-louis/1121-Crestwood-Elementary-School/?utm_source=GSAPI&amp;utm_medium=referral,https://www.greatschools.org/missouri/saint-louis/1121-Crestwood-Elementary-School/?utm_source=GSAPI&amp;utm_medium=referral#Reviews,https://www.greatschools.org/missouri/saint-louis/1121-Crestwood-Elementary-School/?utm_source=GSAPI&amp;utm_medium=referral,</school><school>
1674,Danforth Elementary School,public,K-5,332,1,4,Saint Louis,MO,408,Riverview Gardens School District,2926670,"1111 Saint Cyr Road, \nSaint Louis, MO  63137",(314) 868-9524,(314) 388-6030,,292667001577,38.73503,-90.23304,https://www.greatschools.org/missouri/saint-louis/1674-Danforth-Elementary-School/?utm_source=GSAPI&amp;utm_medium=referral,https://www.greatschools.org/missouri/saint-louis/1674-Danforth-Elementary-School/?utm_source=GSAPI&amp;utm_medium=referral,https://www.greatschools.org/missouri/saint-louis/1674-Danforth-Elementary-School/?utm_source=GSAPI&amp;utm_medium=referral#Reviews,https://www.greatschools.org/missouri/saint-louis/1674-Danforth-Elementary-School/?utm_source=GSAPI&amp;utm_medium=referral,</school><school>
2080,Dewey School-Internat\'l. Studies,public,PK-5,470,3,4,Saint Louis,MO,458,St. Louis City School District,2929280,"815 Ann Avenue, \nSaint Louis, MO  63104",(314) 645-4845,(314) 645-5926,http://www.slps.org/Domain/419,292928002641,38.60569,-90.204895,https://www.greatschools.org/missouri/saint-louis/2080-Dewey-School-Internat\'l.-Studies/?utm_source=GSAPI&amp;utm_medium=referral,https://www.greatschools.org/missouri/saint-louis/2080-Dewey-School-Internat\'l.-Studies/?utm_source=GSAPI&amp;utm_medium=referral,https://www.greatschools.org/missouri/saint-louis/2080-Dewey-School-Internat\'l.-Studies/?utm_source=GSAPI&amp;utm_medium=referral#Reviews,https://www.greatschools.org/missouri/saint-louis/2080-Dewey-School-Internat\'l.-Studies/?utm_source=GSAPI&amp;utm_medium=referral,</school><school>
5555,Discovery Ridge Elementary School,public,K-5,919,8,2,Lake Saint Louis,MO,512,Wentzville R-IV School District,2931650,"2523 Sommers Road, \nLake Saint Louis, MO  63367",(636) 561-2354,(636) 561-2355,,293165003155,38.748657,-90.78475,https://www.greatschools.org/missouri/lake-saint-louis/5555-Discovery-Ridge-Elementary-School/?utm_source=GSAPI&amp;utm_medium=referral,https://www.greatschools.org/missouri/lake-saint-louis/5555-Discovery-Ridge-Elementary-School/?utm_source=GSAPI&amp;utm_medium=referral,https://www.greatschools.org/missouri/lake-saint-louis/5555-Discovery-Ridge-Elementary-School/?utm_source=GSAPI&amp;utm_medium=referral#Reviews,https://www.greatschools.org/missouri/lake-saint-louis/5555-Discovery-Ridge-Elementary-School/?utm_source=GSAPI&amp;utm_medium=referral,</school><school>
3368,Duello Elementary School,public,K-5,795,7,4,Lake Saint Louis,MO,512,Wentzville R-IV School District,2931650,"1814 Duello Road, \nLake Saint Louis, MO  63367",(636) 327-6050,(636) 327-4211,,293165003080,38.776726,-90.82505,https://www.greatschools.org/missouri/lake-saint-louis/3368-Duello-Elementary-School/?utm_source=GSAPI&amp;utm_medium=referral,https://www.greatschools.org/missouri/lake-saint-louis/3368-Duello-Elementary-School/?utm_source=GSAPI&amp;utm_medium=referral,https://www.greatschools.org/missouri/lake-saint-louis/3368-Duello-Elementary-School/?utm_source=GSAPI&amp;utm_medium=referral#Reviews,https://www.greatschools.org/missouri/lake-saint-louis/3368-Duello-Elementary-School/?utm_source=GSAPI&amp;utm_medium=referral,</school><school>
2004,Dunbar And Br.,public,PK-6,199,1,,Saint Louis,MO,458,St. Louis City School District,2929280,"1415 North Garrison Avenue, \nSaint Louis, MO  63106",(314) 533-2526,(314) 533-0269,,292928001916,38.6452,-90.22074,https://www.greatschools.org/missouri/saint-louis/2004-Dunbar-And-Br./?utm_source=GSAPI&amp;utm_medium=referral,https://www.greatschools.org/missouri/saint-louis/2004-Dunbar-And-Br./?utm_source=GSAPI&amp;utm_medium=referral,https://www.greatschools.org/missouri/saint-louis/2004-Dunbar-And-Br./?utm_source=GSAPI&amp;utm_medium=referral#Reviews,https://www.greatschools.org/missouri/saint-louis/2004-Dunbar-And-Br./?utm_source=GSAPI&amp;utm_medium=referral,</school><school>
3055,Earl Nance Sr. Elementary School,public,PK-6,318,1,5,Saint Louis,MO,458,St. Louis City School District,2929280,"8959 Riverview Boulevard, \nSaint Louis, MO  63147",(314) 867-0634,(314) 867-1006,,292928002853,38.72143,-90.241104,https://www.greatschools.org/missouri/saint-louis/3055-Earl-Nance-Sr.-Elementary-School/?utm_source=GSAPI&amp;utm_medium=referral,https://www.greatschools.org/missouri/saint-louis/3055-Earl-Nance-Sr.-Elementary-School/?utm_source=GSAPI&amp;utm_medium=referral,https://www.greatschools.org/missouri/saint-louis/3055-Earl-Nance-Sr.-Elementary-School/?utm_source=GSAPI&amp;utm_medium=referral#Reviews,https://www.greatschools.org/missouri/saint-louis/3055-Earl-Nance-Sr.-Elementary-School/?utm_source=GSAPI&amp;utm_medium=referral,</school><school>
6873,Educ Therap Support At Madison,public,K-8,,,,Saint Louis,MO,458,St. Louis City School District,2929280,"118 South 7th St., \nSaint Louis, MO  63104",(314) 932-5711,,,292928003280,38.609524,-90.20057,https://www.greatschools.org/missouri/saint-louis/6873-Educ-Therap-Support-At-Madison/?utm_source=GSAPI&amp;utm_medium=referr,,,,
2005,Elias Michael Elementary School,public,PK-8,61,,,Saint Louis,MO,458,St. Louis City School District,2929280,"2 Gateway Dr, \nSaint Louis, MO  63106",(314) 241-0993,(314) 241-1335,,292928001917,38.642,-90.2105,https://www.greatschools.org/missouri/saint-louis/2005-Elias-Michael-Elementary-School/?utm_source=GSAPI&amp;utm_medium=referral,https://www.greatschools.org/missouri/saint-louis/2005-Elias-Michael-Elementary-School/?utm_source=GSAPI&amp;utm_medium=referral,https://www.greatschools.org/missouri/saint-louis/2005-Elias-Michael-Elementary-School/?utm_source=GSAPI&amp;utm_medium=referral#Reviews,https://www.greatschools.org/missouri/saint-louis/2005-Elias-Michael-Elementary-School/?utm_source=GSAPI&amp;utm_medium=referral,</school><school>
1987,External Location,public,K-12,,,,Saint Louis,MO,458,St. Louis City School District,2929280,"801 North 11th Street, \nSaint Louis, MO  63101",(314) 345-4452,,,292928001591,38.633404,-90.1945,https://www.greatschools.org/missouri/saint-louis/1987-External-Location/?utm_source=GSAPI&amp;utm_medium=referral,https://www.greatschools.org/missouri/saint-louis/1987-External-Location/?utm_source=GSAPI&amp;utm_medium=referral,https://www.greatschools.org/missouri/saint-louis/1987-External-Location/?utm_source=GSAPI&amp;utm_medium=referral#Reviews,https://www.greatschools.org/missouri/saint-louis/1987-External-Location/?utm_source=GSAPI&amp;utm_medium=referral,</school><school>
1695,External Sites,public,K-12,1926,1,,Saint Louis,MO,409,Specl. Sch. Dst. St. Louis County School District,2926760,"12110 Clayton Road, \nSaint Louis, MO  63131",(314) 989-8100,(314) 989-8156,,292676002628,38.630993,-90.44137,https://www.greatschools.org/missouri/saint-louis/1695-External-Sites/?utm_source=GSAPI&amp;utm_medium=referral,https://www.greatschools.org/missouri/saint-louis/1695-External-Sites/?utm_source=GSAPI&amp;utm_medium=referral,https://www.greatschools.org/missouri/saint-louis/1695-External-Sites/?utm_source=GSAPI&amp;utm_medium=referral#Reviews,https://www.greatschools.org/missouri/saint-louis/1695-External-Sites/?utm_source=GSAPI&amp;utm_medium=referral,</school><school>
2011,Farragut Elementary School,public,PK-6,165,4,4,Saint Louis,MO,458,St. Louis City School District,2929280,"4025 Sullivan Avenue, \nSaint Louis, MO  63107",(314) 531-1198,(314) 531-5356,http://www.slps.org/Domain/570,292928001923,38.662666,-90.22766,https://www.greatschools.org/missouri/saint-louis/2011-Farragut-Elementary-School/?utm_source=GSAPI&amp;utm_medium=referral,https://www.greatschools.org/missouri/saint-louis/2011-Farragut-Elementary-School/?utm_source=GSAPI&amp;utm_medium=referral,https://www.greatschools.org/missouri/saint-louis/2011-Farragut-Elementary-School/?utm_source=GSAPI&amp;utm_medium=referral#Reviews,https://www.greatschools.org/missouri/saint-louis/2011-Farragut-Elementary-School/?utm_source=GSAPI&amp;utm_medium=referral,</school><school>
2078,Ford-Ford Br. Elementary Community Ed.,public,PK-6,267,1,2,Saint Louis,MO,458,St. Louis City School District,2929280,"1383 Clara Avenue, \nSaint Louis, MO  63112",(314) 383-0836,(314) 383-0887,,292928002571,38.667137,-90.27847,https://www.greatschools.org/missouri/saint-louis/2078-Ford-Ford-Br.-Elementary-Community-Ed./?utm_source=GSAPI&amp;utm_medium=referral,https://www.greatschools.org/missouri/saint-louis/2078-Ford-Ford-Br.-Elementary-Community-Ed./?utm_source=GSAPI&amp;utm_medium=referral,https://www.greatschools.org/missouri/saint-louis/2078-Ford-Ford-Br.-Elementary-Community-Ed./?utm_source=GSAPI&amp;utm_medium=referral#Reviews,https://www.greatschools.org/missouri/saint-louis/2078-Ford-Ford-Br.-Elementary-Community-Ed./?utm_source=GSAPI&amp;utm_medium=referral,</school><school>
1224,Forder Elementary School,public,K-5,439,4,4,Saint Louis,MO,294,Mehlville R-Ix School District,2920670,"623 West Ripa Avenue, \nSaint Louis, MO  63125",(314) 467-5600,(314) 467-5699,http://mehlvilleforderelementary.ss11.sharpschool.com/,292067002420,38.524754,-90.28704,https://www.greatschools.org/missouri/saint-louis/1224-Forder-Elementary-School/?utm_source=GSAPI&amp;utm_medium=referral,https://www.greatschools.org/missouri/saint-louis/1224-Forder-Elementary-School/?utm_source=GSAPI&amp;utm_medium=referral,https://www.greatschools.org/missouri/saint-louis/1224-Forder-Elementary-School/?utm_source=GSAPI&amp;utm_medium=referral#Reviews,https://www.greatschools.org/missouri/saint-louis/1224-Forder-Elementary-School/?utm_source=GSAPI&amp;utm_medium=referral,</school><school>
2014,Froebel Elementary School,public,PK-5,290,3,5,Saint Louis,MO,458,St. Louis City School District,2929280,"3709 Nebraska Avenue, \nSaint Louis, MO  63118",(314) 771-3533,(314) 771-3590,,292928001928,38.58841,-90.23392,https://www.greatschools.org/missouri/saint-louis/2014-Froebel-Elementary-School/?utm_source=GSAPI&amp;utm_medium=referral,https://www.greatschools.org/missouri/saint-louis/2014-Froebel-Elementary-School/?utm_source=GSAPI&amp;utm_medium=referral,https://www.greatschools.org/missouri/saint-louis/2014-Froebel-Elementary-School/?utm_source=GSAPI&amp;utm_medium=referral#Reviews,https://www.greatschools.org/missouri/saint-louis/2014-Froebel-Elementary-School/?utm_source=GSAPI&amp;utm_medium=referral,</school><school>
1984,Gateway Elementary School,public,PK-5,561,3,3,Saint Louis,MO,458,St. Louis City School District,2929280,"1200 Jefferson Avenue, \nSaint Louis, MO  63106",(314) 241-8255,(314) 241-3159,http://www.slps.org/Page/3030,292928001587,38.64136,-90.21277,https://www.greatschools.org/missouri/saint-louis/1984-Gateway-Elementary-School/?utm_source=GSAPI&amp;utm_medium=referral,https://www.greatschools.org/missouri/saint-louis/1984-Gateway-Elementary-School/?utm_source=GSAPI&amp;utm_medium=referral,https://www.greatschools.org/missouri/saint-louis/1984-Gateway-Elementary-School/?utm_source=GSAPI&amp;utm_medium=referral#Reviews,https://www.greatschools.org/missouri/saint-louis/1984-Gateway-Elementary-School/?utm_source=GSAPI&amp;utm_medium=referral,</school><school>
3218,Gateway/Hubert Wheeler School,public,K-12,33,,,Saint Louis,MO,538,Mo Schls For The Sev Disabled School District,2900022,"100 South Garrison Avenue, \nSaint Louis, MO  63103",(314) 340-5902,,http://www.dese.mo.gov/divspeced/stateschools/,290002203074,38.631565,-90.22264,https://www.greatschools.org/missouri/saint-louis/3218-Gateway-Hubert-Wheeler-School/?utm_source=GSAPI&amp;utm_medium=referral,https://www.greatschools.org/missouri/saint-louis/3218-Gateway-Hubert-Wheeler-School/?utm_source=GSAPI&amp;utm_medium=referral,https://www.greatschools.org/missouri/saint-louis/3218-Gateway-Hubert-Wheeler-School/?utm_source=GSAPI&amp;utm_medium=referral#Reviews,https://www.greatschools.org/missouri/saint-louis/3218-Gateway-Hubert-Wheeler-School/?utm_source=GSAPI&amp;utm_medium=referral,</school><school>
1673,Gibson Elementary School,public,K-5,413,1,4,Saint Louis,MO,408,Riverview Gardens School District,2926670,"9926 Fonda Drive, \nSaint Louis, MO  63137",(314) 869-4845,(314) 388-6032,http://rgsd.k12.mo.us/,292667000726,38.748943,-90.23245,https://www.greatschools.org/missouri/saint-louis/1673-Gibson-Elementary-School/?utm_source=GSAPI&amp;utm_medium=referral,https://www.greatschools.org/missouri/saint-louis/1673-Gibson-Elementary-School/?utm_source=GSAPI&amp;utm_medium=referral,https://www.greatschools.org/missouri/saint-louis/1673-Gibson-Elementary-School/?utm_source=GSAPI&amp;utm_medium=referral#Reviews,https://www.greatschools.org/missouri/saint-louis/1673-Gibson-Elementary-School/?utm_source=GSAPI&amp;utm_medium=referral,</school><school>
1675,Glasgow Elementary School,public,K-5,337,1,4,Saint Louis,MO,408,Riverview Gardens School District,2926670,"10560 Renfrew Drive, \nSaint Louis, MO  63137",(314) 868-4680,(314) 388-6034,http://glasgowelem.mo.rge.schoolinsites.com/,292667001579,38.758724,-90.20586,https://www.greatschools.org/missouri/saint-louis/1675-Glasgow-Elementary-School/?utm_source=GSAPI&amp;utm_medium=referral,https://www.greatschools.org/missouri/saint-louis/1675-Glasgow-Elementary-School/?utm_source=GSAPI&amp;utm_medium=referral,https://www.greatschools.org/missouri/saint-louis/1675-Glasgow-Elementary-School/?utm_source=GSAPI&amp;utm_medium=referral#Reviews,https://www.greatschools.org/missouri/saint-louis/1675-Glasgow-Elementary-School/?utm_source=GSAPI&amp;utm_medium=referral,</school><school>
733,Grannemann Elementary School,public,PK-5,422,2,3,Saint Louis,MO,194,Hazelwood School District,2913830,"2324 Redman Road, \nSaint Louis, MO  63136",(314) 953-4250,(314) 953-4263,http://www.hazelwoodschools.org/,291383000621,38.781548,-90.24311,https://www.greatschools.org/missouri/saint-louis/733-Grannemann-Elementary-School/?utm_source=GSAPI&amp;utm_medium=referral,https://www.greatschools.org/missouri/saint-louis/733-Grannemann-Elementary-School/?utm_source=GSAPI&amp;utm_medium=referral,https://www.greatschools.org/missouri/saint-louis/733-Grannemann-Elementary-School/?utm_source=GSAPI&amp;utm_medium=referral#Reviews,https://www.greatschools.org/missouri/saint-louis/733-Grannemann-Elementary-School/?utm_source=GSAPI&amp;utm_medium=referral,</school><school>
2272,Green Tree Elementary School,public,K-5,645,8,4,Lake Saint Louis,MO,512,Wentzville R-IV School District,2931650,"1000 Ronald Reagan Drive, \nLake Saint Louis, MO  63367",(636) 625-5600,(636) 625-5610,http://wentzville.k12.mo.us/course/view.php?id=15,293165002110,38.78037,-90.78025,https://www.greatschools.org/missouri/lake-saint-louis/2272-Green-Tree-Elementary-School/?utm_source=GSAPI&amp;utm_medium=referral,https://www.greatschools.org/missouri/lake-saint-louis/2272-Green-Tree-Elementary-School/?utm_source=GSAPI&amp;utm_medium=referral,https://www.greatschools.org/missouri/lake-saint-louis/2272-Green-Tree-Elementary-School/?utm_source=GSAPI&amp;utm_medium=referral#Reviews,https://www.greatschools.org/missouri/lake-saint-louis/2272-Green-Tree-Elementary-School/?utm_source=GSAPI&amp;utm_medium=referral,</school><school>
1210,Hagemann Elementary School,public,K-5,303,5,4,Saint Louis,MO,294,Mehlville R-Ix School District,2920670,"6401 Hagemann Road, \nSaint Louis, MO  63128",(314) 467-5700,(314) 467-5799,,292067001097,38.46943,-90.39874,https://www.greatschools.org/missouri/saint-louis/1210-Hagemann-Elementary-School/?utm_source=GSAPI&amp;utm_medium=referral,https://www.greatschools.org/missouri/saint-louis/1210-Hagemann-Elementary-School/?utm_source=GSAPI&amp;utm_medium=referral,https://www.greatschools.org/missouri/saint-louis/1210-Hagemann-Elementary-School/?utm_source=GSAPI&amp;utm_medium=referral#Reviews,https://www.greatschools.org/missouri/saint-louis/1210-Hagemann-Elementary-School/?utm_source=GSAPI&amp;utm_medium=referral,</school><school>
2020,Hamilton Elementary Community Ed.,public,PK-5,332,4,4,Saint Louis,MO,458,St. Louis City School District,2929280,"4160 North Kingshighway Boulevard, \nSaint Louis, MO  63115",(314) 367-0552,(314) 367-2392,,292928001937,38.68098,-90.2477,https://www.greatschools.org/missouri/saint-louis/2020-Hamilton-Elementary-Community-Ed./?utm_source=GSAPI&amp;utm_medium=referral,https://www.greatschools.org/missouri/saint-louis/2020-Hamilton-Elementary-Community-Ed./?utm_source=GSAPI&amp;utm_medium=referral,https://www.greatschools.org/missouri/saint-louis/2020-Hamilton-Elementary-Community-Ed./?utm_source=GSAPI&amp;utm_medium=referral#Reviews,https://www.greatschools.org/missouri/saint-louis/2020-Hamilton-Elementary-Community-Ed./?utm_source=GSAPI&amp;utm_medium=referral,</school><school>
697,Hancock Place Elementary School,public,PK-5,720,9,3,Saint Louis,MO,187,Hancock Place School District,2913620,"9101 South Broadway, \nSaint Louis, MO  63125",(314) 544-1300,(314) 544-4931,http://www.hancock.k12.mo.us,291362000584,38.53724,-90.27323,https://www.greatschools.org/missouri/saint-louis/697-Hancock-Place-Elementary-School/?utm_source=GSAPI&amp;utm_medium=referral,https://www.greatschools.org/missouri/saint-louis/697-Hancock-Place-Elementary-School/?utm_source=GSAPI&amp;utm_medium=referral,https://www.greatschools.org/missouri/saint-louis/697-Hancock-Place-Elementary-School/?utm_source=GSAPI&amp;utm_medium=referral#Reviews,https://www.greatschools.org/missouri/saint-louis/697-Hancock-Place-Elementary-School/?utm_source=GSAPI&amp;utm_medium=referral,</school><school>
2022,Henry Elementary School,public,PK-6,240,1,5,Saint Louis,MO,458,St. Louis City School District,2929280,"1220 North 10th Street, \nSaint Louis, MO  63106",(314) 231-7284,(314) 231-0232,,292928001942,38.63718,-90.191284,https://www.greatschools.org/missouri/saint-louis/2022-Henry-Elementary-School/?utm_source=GSAPI&amp;utm_medium=referral,https://www.greatschools.org/missouri/saint-louis/2022-Henry-Elementary-School/?utm_source=GSAPI&amp;utm_medium=referral,https://www.greatschools.org/missouri/saint-louis/2022-Henry-Elementary-School/?utm_source=GSAPI&amp;utm_medium=referral#Reviews,https://www.greatschools.org/missouri/saint-louis/2022-Henry-Elementary-School/?utm_source=GSAPI&amp;utm_medium=referral,</school><school>
2023,Herzog Elementary School,public,PK-6,335,1,3,Saint Louis,MO,458,St. Louis City School District,2929280,"5831 Pamplin Avenue, \nSaint Louis, MO  63147",(314) 385-2212,(314) 385-1925,,292928001943,38.71114,-90.25221,https://www.greatschools.org/missouri/saint-louis/2023-Herzog-Elementary-School/?utm_source=GSAPI&amp;utm_medium=referral,https://www.greatschools.org/missouri/saint-louis/2023-Herzog-Elementary-School/?utm_source=GSAPI&amp;utm_medium=referral,https://www.greatschools.org/missouri/saint-louis/2023-Herzog-Elementary-School/?utm_source=GSAPI&amp;utm_medium=referral#Reviews,https://www.greatschools.org/missouri/saint-louis/2023-Herzog-Elementary-School/?utm_source=GSAPI&amp;utm_medium=referral,</school><school>
1976,Hickey Elementary School,public,PK-5,185,1,5,Saint Louis,MO,458,St. Louis City School District,2929280,"3111 Cora Avenue, \nSaint Louis, MO  63115",(314) 383-2550,(314) 383-5164,http://www.slps.org/,292928000444,38.669193,-90.24521,https://www.greatschools.org/missouri/saint-louis/1976-Hickey-Elementary-School/?utm_source=GSAPI&amp;utm_medium=referral,https://www.greatschools.org/missouri/saint-louis/1976-Hickey-Elementary-School/?utm_source=GSAPI&amp;utm_medium=referral,https://www.greatschools.org/missouri/saint-louis/1976-Hickey-Elementary-School/?utm_source=GSAPI&amp;utm_medium=referral#Reviews,https://www.greatschools.org/missouri/saint-louis/1976-Hickey-Elementary-School/?utm_source=GSAPI&amp;utm_medium=referral,</school><school>
1682,Highland Elementary School,public,K-5,344,1,3,Saint Louis,MO,408,Riverview Gardens School District,2926670,"174 Shepley Drive, \nSaint Louis, MO  63137",(314) 868-4561,(314) 388-6036,http://highlandelem.mo.rge.schoolinsites.com/,292667002627,38.754894,-90.19729,https://www.greatschools.org/missouri/saint-louis/1682-Highland-Elementary-School/?utm_source=GSAPI&amp;utm_medium=referral,https://www.greatschools.org/missouri/saint-louis/1682-Highland-Elementary-School/?utm_source=GSAPI&amp;utm_medium=referral,https://www.greatschools.org/missouri/saint-louis/1682-Highland-Elementary-School/?utm_source=GSAPI&amp;utm_medium=referral#Reviews,https://www.greatschools.org/missouri/saint-louis/1682-Highland-Elementary-School/?utm_source=GSAPI&amp;utm_medium=referral,</school><school>
2067,Hodgen Elementary School,public,PK-6,263,1,3,Saint Louis,MO,458,St. Louis City School District,2929280,"1616 California Avenue, \nSaint Louis, MO  63104",(314) 771-2539,(314) 771-2418,http://www.slps.org/Domain/866,292928002170,38.616604,-90.22454,https://www.greatschools.org/missouri/saint-louis/2067-Hodgen-Elementary-School/?utm_source=GSAPI&amp;utm_medium=referral,https://www.greatschools.org/missouri/saint-louis/2067-Hodgen-Elementary-School/?utm_source=GSAPI&amp;utm_medium=referral,https://www.greatschools.org/missouri/saint-louis/2067-Hodgen-Elementary-School/?utm_source=GSAPI&amp;utm_medium=referral#Reviews,https://www.greatschools.org/missouri/saint-louis/2067-Hodgen-Elementary-School/?utm_source=GSAPI&amp;utm_medium=referral,</school><school>
2259,Hudson Elementary School,public,K-5,225,4,5,Saint Louis,MO,508,Webster Groves School District,2931530,"9825 Hudson Avenue, \nSaint Louis, MO  63119",(314) 963-6466,(314) 963-6478,,293153002417,38.609886,-90.37343,https://www.greatschools.org/missouri/saint-louis/2259-Hudson-Elementary-School/?utm_source=GSAPI&amp;utm_medium=referral,https://www.greatschools.org/missouri/saint-louis/2259-Hudson-Elementary-School/?utm_source=GSAPI&amp;utm_medium=referral,https://www.greatschools.org/missouri/saint-louis/2259-Hudson-Elementary-School/?utm_source=GSAPI&amp;utm_medium=referral#Reviews,https://www.greatschools.org/missouri/saint-louis/2259-Hudson-Elementary-School/?utm_source=GSAPI&amp;utm_medium=referral,</school><school>
5596,Humboldt Academy Of Higher Lrning,public,3-5,262,3,1,Saint Louis,MO,458,St. Louis City School District,2929280,"2516 South 9th Street, \nSaint Louis, MO  63104",(314) 932-5720,,,292928003193,38.601093,-90.20738,https://www.greatschools.org/missouri/saint-louis/5596-Humboldt-Academy-Of-Higher-Lrning/?utm_source=GSAPI&amp;utm_medium=referral,https://www.greatschools.org/missouri/saint-louis/5596-Humboldt-Academy-Of-Higher-Lrning/?utm_source=GSAPI&amp;utm_medium=referral,https://www.greatschools.org/missouri/saint-louis/5596-Humboldt-Academy-Of-Higher-Lrning/?utm_source=GSAPI&amp;utm_medium=referral#Reviews,https://www.greatschools.org/missouri/saint-louis/5596-Humboldt-Academy-Of-Higher-Lrning/?utm_source=GSAPI&amp;utm_medium=referral,</school><school>
1665,Iveland Elementary School,public,K-5,536,2,4,Saint Louis,MO,407,Ritenour School District,2926640,"1836 Dyer Avenue, \nSaint Louis, MO  63114",(314) 493-6330,(314) 429-6721,http://www.ritenourschools.org,292664001568,38.693336,-90.38321,https://www.greatschools.org/missouri/saint-louis/1665-Iveland-Elementary-School/?utm_source=GSAPI&amp;utm_medium=referral,https://www.greatschools.org/missouri/saint-louis/1665-Iveland-Elementary-School/?utm_source=GSAPI&amp;utm_medium=referral,https://www.greatschools.org/missouri/saint-louis/1665-Iveland-Elementary-School/?utm_source=GSAPI&amp;utm_medium=referral#Reviews,https://www.greatschools.org/missouri/saint-louis/1665-Iveland-Elementary-School/?utm_source=GSAPI&amp;utm_medium=referral,</school><school>
1343,Jefferson Elementary School,public,1-6,222,3,5,Saint Louis,MO,334,Normandy School District,2922650,"4315 Cardwell Drive, \nSaint Louis, MO  63121",(314) 493-0100,(314) 493-0110,http://www.normandysd.org,292265001243,38.709976,-90.29433,https://www.greatschools.org/missouri/saint-louis/1343-Jefferson-Elementary-School/?utm_source=GSAPI&amp;utm_medium=referral,https://www.greatschools.org/missouri/saint-louis/1343-Jefferson-Elementary-School/?utm_source=GSAPI&amp;utm_medium=referral,https://www.greatschools.org/missouri/saint-louis/1343-Jefferson-Elementary-School/?utm_source=GSAPI&amp;utm_medium=referral#Reviews,https://www.greatschools.org/missouri/saint-louis/1343-Jefferson-Elementary-School/?utm_source=GSAPI&amp;utm_medium=referral,</school><school>
2025,Jefferson Elementary School,public,PK-5,250,1,2,Saint Louis,MO,458,St. Louis City School District,2929280,"1301 Hogan Street, \nSaint Louis, MO  63106",(314) 231-2459,(314) 231-2905,http://www.slps.org/Jefferson,292928001950,38.640762,-90.20344,https://www.greatschools.org/missouri/saint-louis/2025-Jefferson-Elementary-School/?utm_source=GSAPI&amp;utm_medium=referral,https://www.greatschools.org/missouri/saint-louis/2025-Jefferson-Elementary-School/?utm_source=GSAPI&amp;utm_medium=referral,https://www.greatschools.org/missouri/saint-louis/2025-Jefferson-Elementary-School/?utm_source=GSAPI&amp;utm_medium=referral#Reviews,https://www.greatschools.org/missouri/saint-louis/2025-Jefferson-Elementary-School/?utm_source=GSAPI&amp;utm_medium=referral,</school><school>
728,Keeven Elementary School,public,PK-5,395,3,2,Saint Louis,MO,194,Hazelwood School District,2913830,"11230 Old Halls Ferry Road, \nSaint Louis, MO  63136",(314) 953-4450,(314) 953-4463,,291383000614,38.77765,-90.26349,https://www.greatschools.org/missouri/saint-louis/728-Keeven-Elementary-School/?utm_source=GSAPI&amp;utm_medium=referral,https://www.greatschools.org/missouri/saint-louis/728-Keeven-Elementary-School/?utm_source=GSAPI&amp;utm_medium=referral,https://www.greatschools.org/missouri/saint-louis/728-Keeven-Elementary-School/?utm_source=GSAPI&amp;utm_medium=referral#Reviews,https://www.greatschools.org/missouri/saint-louis/728-Keeven-Elementary-School/?utm_source=GSAPI&amp;utm_medium=referral,</school><school>
2082,Kennard/Classical Jr. Academy,public,PK-5,346,10,5,Saint Louis,MO,458,St. Louis City School District,2929280,"5031 Potomac Street, \nSaint Louis, MO  63139",(314) 353-8875,(314) 351-0441</,,,,,,,,,
1676,Koch Elementary School,public,K-5,334,1,3,Saint Louis,MO,408,Riverview Gardens School District,2926670,"1910 Exuma Drive, \nSaint Louis, MO  63136",(314) 868-3029,(314) 388-6038,http://kochelem.mo.rge.schoolinsites.com/,292667001581,38.742023,-90.264336,https://www.greatschools.org/missouri/saint-louis/1676-Koch-Elementary-School/?utm_source=GSAPI&amp;utm_medium=referral,https://www.greatschools.org/missouri/saint-louis/1676-Koch-Elementary-School/?utm_source=GSAPI&amp;utm_medium=referral,https://www.greatschools.org/missouri/saint-louis/1676-Koch-Elementary-School/?utm_source=GSAPI&amp;utm_medium=referral#Reviews,https://www.greatschools.org/missouri/saint-louis/1676-Koch-Elementary-School/?utm_source=GSAPI&amp;utm_medium=referral,</school><school>
1666,Kratz Elementary School,public,K-5,535,3,4,Saint Louis,MO,407,Ritenour School District,2926640,"4301 Edmundson Road, \nSaint Louis, MO  63134",(314) 493-6360,(314) 429-6735,http://www.ritenourschools.org,292664001569,38.731583,-90.36592,https://www.greatschools.org/missouri/saint-louis/1666-Kratz-Elementary-School/?utm_source=GSAPI&amp;utm_medium=referral,https://www.greatschools.org/missouri/saint-louis/1666-Kratz-Elementary-School/?utm_source=GSAPI&amp;utm_medium=referral,https://www.greatschools.org/missouri/saint-louis/1666-Kratz-Elementary-School/?utm_source=GSAPI&amp;utm_medium=referral#Reviews,https://www.greatschools.org/missouri/saint-louis/1666-Kratz-Elementary-School/?utm_source=GSAPI&amp;utm_medium=referral,</school><school>
2028,Laclede Elementary School,public,PK-5,237,1,,Saint Louis,MO,458,St. Louis City School District,2929280,"5821 Kennerly Avenue, \nSaint Louis, MO  63112",(314) 385-0546,(314) 385-7294,,292928001955,38.677307,-90.27654,https://www.greatschools.org/missouri/saint-louis/2028-Laclede-Elementary-School/?utm_source=GSAPI&amp;utm_medium=referral,https://www.greatschools.org/missouri/saint-louis/2028-Laclede-Elementary-School/?utm_source=GSAPI&amp;utm_medium=referral,https://www.greatschools.org/missouri/saint-louis/2028-Laclede-Elementary-School/?utm_source=GSAPI&amp;utm_medium=referral#Reviews,https://www.greatschools.org/missouri/saint-louis/2028-Laclede-Elementary-School/?utm_source=GSAPI&amp;utm_medium=referral,</school><school>
741,Larimore Elementary School,public,PK-5,410,2,3,Saint Louis,MO,194,Hazelwood School District,2913830,"1025 Trampe Avenue, \nSaint Louis, MO  63138",(314) 953-4500,(314) 953-4513,,291383000630,38.78959,-90.1978,https://www.greatschools.org/missouri/saint-louis/741-Larimore-Elementary-School/?utm_source=GSAPI&amp;utm_medium=referral,https://www.greatschools.org/missouri/saint-louis/741-Larimore-Elementary-School/?utm_source=GSAPI&amp;utm_medium=referral,https://www.greatschools.org/missouri/saint-louis/741-Larimore-Elementary-School/?utm_source=GSAPI&amp;utm_medium=referral#Reviews,https://www.greatschools.org/missouri/saint-louis/741-Larimore-Elementary-School/?utm_source=GSAPI&amp;utm_medium=referral,</school><school>
1677,Lemasters Elementary School,public,K-5,335,2,3,Saint Louis,MO,408,Riverview Gardens School District,2926670,"1825 Crown Point Drive, \nSaint Louis, MO  63136",(314) 868-8192,(314) 388-6040,http://www.rgsd.k12.mo.us/,292667001582,38.75737,-90.269264,https://www.greatschools.org/missouri/saint-louis/1677-Lemasters-Elementary-School/?utm_source=GSAPI&amp;utm_medium=referral,https://www.greatschools.org/missouri/saint-louis/1677-Lemasters-Elementary-School/?utm_source=GSAPI&amp;utm_medium=referral,https://www.greatschools.org/missouri/saint-louis/1677-Lemasters-Elementary-School/?utm_source=GSAPI&amp;utm_medium=referral#Reviews,https://www.greatschools.org/missouri/saint-louis/1677-Lemasters-Elementary-School/?utm_source=GSAPI&amp;utm_medium=referral,</school><school>
1678,Lewis And Clark Elementary School,public,K-5,206,3,5,Saint Louis,MO,408,Riverview Gardens School District,2926670,"10242 Prince Drive, \nSaint Louis, MO  63136",(314) 868-5205,(314) 388-6042,,292667001583,38.75702,-90.2425,https://www.greatschools.org/missouri/saint-louis/1678-Lewis-And-Clark-Elementary-School/?utm_source=GSAPI&amp;utm_medium=referral,https://www.greatschools.org/missouri/saint-louis/1678-Lewis-And-Clark-Elementary-School/?utm_source=GSAPI&amp;utm_medium=referral,https://www.greatschools.org/missouri/saint-louis/1678-Lewis-And-Clark-Elementary-School/?utm_source=GSAPI&amp;utm_medium=referral#Reviews,https://www.greatschools.org/missouri/saint-louis/1678-Lewis-And-Clark-Elementary-School/?utm_source=GSAPI&amp;utm_medium=referral,</school><school>
2031,Lexington Elementary School,public,PK-5,379,2,5,Saint Louis,MO,458,St. Louis City School District,2929280,"5030 Lexington Avenue, \nSaint Louis, MO  63115",(314) 385-2522,(314) 385-4158,http://www.slps.org/,292928001958,38.674397,-90.25492,https://www.greatschools.org/missouri/saint-louis/2031-Lexington-Elementary-School/?utm_source=GSAPI&amp;utm_medium=referral,https://www.greatschools.org/missouri/saint-louis/2031-Lexington-Elementary-School/?utm_source=GSAPI&amp;utm_medium=referral,https://www.greatschools.org/missouri/saint-louis/2031-Lexington-Elementary-School/?utm_source=GSAPI&amp;utm_medium=referral#Reviews,https://www.greatschools.org/missouri/saint-louis/2031-Lexington-Elementary-School/?utm_source=GSAPI&amp;utm_medium=referral,</school><school>
1687,Litzsinger,public,K-8,104,1,,Saint Louis,MO,409,Specl. Sch. Dst. St. Louis County School District,2926760,"10094 Litzsinger Road, \nSaint Louis, MO  63124",(314) 989-8800,(314) 989-8804,,292676001599,38.624683,-90.404594,https://www.greatschools.org/missouri/saint-louis/1687-Litzsinger/?utm_source=GSAPI&amp;utm_medium=referral,https://www.greatschools.org/missouri/saint-louis/1687-Litzsinger/?utm_source=GSAPI&amp;utm_medium=referral,https://www.greatschools.org/missouri/saint-louis/1687-Litzsinger/?utm_source=GSAPI&amp;utm_medium=referral#Reviews,https://www.greatschools.org/missouri/saint-louis/1687-Litzsinger/?utm_source=GSAPI&amp;utm_medium=referral,</school><school>
1123,Long Elementary School,public,K-5,647,8,4,Saint Louis,MO,265,Lindbergh Schools,2918690,"9021 Sappington Road, \nSaint Louis, MO  63126",(314) 729-2450,(314) 729-2452,http://go.lindberghschools.ws/Domain/14,291869001022,38.546383,-90.381256,https://www.greatschools.org/missouri/saint-louis/1123-Long-Elementary-School/?utm_source=GSAPI&amp;utm_medium=referral,https://www.greatschools.org/missouri/saint-louis/1123-Long-Elementary-School/?utm_source=GSAPI&amp;utm_medium=referral,https://www.greatschools.org/missouri/saint-louis/1123-Long-Elementary-School/?utm_source=GSAPI&amp;utm_medium=referral#Reviews,https://www.greatschools.org/missouri/saint-louis/1123-Long-Elementary-School/?utm_source=GSAPI&amp;utm_medium=referral,</school><school>
3049,Lucas Crossing Elementary Complex,public,1-6,812,1,2,Saint Louis,MO,334,Normandy School District,2922650,"7837 Natural Bridge Road, \nSaint Louis, MO  63121",(314) 493-0200,(314) 493-0297,http://www.normandysd.org,292265002850,38.708103,-90.30619,https://www.greatschools.org/missouri/saint-louis/3049-Lucas-Crossing-Elementary-Complex/?utm_source=GSAPI&amp;utm_medium=referral,https://www.greatschools.org/missouri/saint-louis/3049-Lucas-Crossing-Elementary-Complex/?utm_source=GSAPI&amp;utm_medium=referral,https://www.greatschools.org/missouri/saint-louis/3049-Lucas-Crossing-Elementary-Complex/?utm_source=GSAPI&amp;utm_medium=referral#Reviews,https://www.greatschools.org/missouri/saint-louis/3049-Lucas-Crossing-Elementary-Complex/?utm_source=GSAPI&amp;utm_medium=referral,</school><school>
2069,Lyon At Blow Elementary School,public,PK-8,400,1,3,Saint Louis,MO,458,St. Louis City School District,2929280,"516 Loughborough Avenue, \nSaint Louis, MO  63111",(314) 353-1353,(314) 481-8625,,292928002403,38.55494,-90.256905,https://www.greatschools.org/missouri/saint-louis/2069-Lyon-At-Blow-Elementary-School/?utm_source=GSAPI&amp;utm_medium=referral,https://www.greatschools.org/missouri/saint-louis/2069-Lyon-At-Blow-Elementary-School/?utm_source=GSAPI&amp;utm_medium=referral,https://www.greatschools.org/missouri/saint-louis/2069-Lyon-At-Blow-Elementary-School/?utm_source=GSAPI&amp;utm_medium=referral#Reviews,https://www.greatschools.org/missouri/saint-louis/2069-Lyon-At-Blow-Elementary-School/?utm_source=GSAPI&amp;utm_medium=referral,</school><school>
2034,Mallinckrodt A.G.I. Elementary School,public,PK-5,275,10,4,Saint Louis,MO,458,St. Louis City School District,2929280,"6020 Pernod Avenue, \nSaint Louis, MO  63139",(314) 352-9212,(314) 352-3142,http://www.slps.org/Page/4192,292928001967,38.59635,-90.293816,https://www.greatschools.org/missouri/saint-louis/2034-Mallinckrodt-A.G.I.-Elementary-School/?utm_source=GSAPI&amp;utm_medium=referral,https://www.greatschools.org/missouri/saint-louis/2034-Mallinckrodt-A.G.I.-Elementary-School/?utm_source=GSAPI&amp;utm_medium=referral,https://www.greatschools.org/missouri/saint-louis/2034-Mallinckrodt-A.G.I.-Elementary-School/?utm_source=GSAPI&amp;utm_medium=referral#Reviews,https://www.greatschools.org/missouri/saint-louis/2034-Mallinckrodt-A.G.I.-Elementary-School/?utm_source=GSAPI&amp;utm_medium=referral,</school><school>
2035,Mann Elementary School,public,PK-6,292,3,3,Saint Louis,MO,458,St. Louis City School District,2929280,"4047 Juniata Street, \nSaint Louis, MO  63116",(314) 772-4545,(314) 772-6348,http://www.slps.org,292928001968,38.60221,-90.25442,https://www.greatschools.org/missouri/saint-louis/2035-Mann-Elementary-School/?utm_source=GSAPI&amp;utm_medium=referral,https://www.greatschools.org/missouri/saint-louis/2035-Mann-Elementary-School/?utm_source=GSAPI&amp;utm_medium=referral,https://www.greatschools.org/missouri/saint-louis/2035-Mann-Elementary-School/?utm_source=GSAPI&amp;utm_medium=referral#Reviews,https://www.greatschools.org/missouri/saint-louis/2035-Mann-Elementary-School/?utm_source=GSAPI&amp;utm_medium=referral,</school><school>
1668,Marvin Elementary School,public,K-5,694,3,3,Saint Louis,MO,407,Ritenour School District,2926640,"3510 Woodson Road, \nSaint Louis, MO  63114",(314) 493-6430,(314) 429-6737,http://www.ritenourschools.org,292664001571,38.717064,-90.358635,https://www.greatschools.org/missouri/saint-louis/1668-Marvin-Elementary-School/?utm_source=GSAPI&amp;utm_medium=referral,https://www.greatschools.org/missouri/saint-louis/1668-Marvin-Elementary-School/?utm_source=GSAPI&amp;utm_medium=referral,https://www.greatschools.org/missouri/saint-louis/1668-Marvin-Elementary-School/?utm_source=GSAPI&amp;utm_medium=referral#Reviews,https://www.greatschools.org/missouri/saint-louis/1668-Marvin-Elementary-School/?utm_source=GSAPI&amp;utm_medium=referral,</school><school>
2016,Mason Elementary School,public,PK-6,479,8,4,Saint Louis,MO,458,St. Louis City School District,2929280,"6031 Southwest Avenue, \nSaint Louis, MO  63139",(314) 645-1201,(314) 645-0884,http://www.slps.org/Domain/1139,292928001930,38.610863,-90.290245,https://www.greatschools.org/missouri/saint-louis/2016-Mason-Elementary-School/?utm_source=GSAPI&amp;utm_medium=referral,https://www.greatschools.org/missouri/saint-louis/2016-Mason-Elementary-School/?utm_source=GSAPI&amp;utm_medium=referral,https://www.greatschools.org/missouri/saint-louis/2016-Mason-Elementary-School/?utm_source=GSAPI&amp;utm_medium=referral#Reviews,https://www.greatschools.org/missouri/saint-louis/2016-Mason-Elementary-School/?utm_source=GSAPI&amp;utm_medium=referral,</school><school>
1495,Mason Ridge Elementary School,public,PK-5,431,8,4,Saint Louis,MO,364,Parkway C-2 School District,2923580,"715 South Mason Road, \nSaint Louis, MO  63141",(314) 415-6450,(314) 415-6462,http://www.parkwayschools.net,292358001390,38.63719,-90.48181,https://www.greatschools.org/missouri/saint-louis/1495-Mason-Ridge-Elementary-School/?utm_source=GSAPI&amp;utm_medium=referral,https://www.greatschools.org/missouri/saint-louis/1495-Mason-Ridge-Elementary-School/?utm_source=GSAPI&amp;utm_medium=referral,https://www.greatschools.org/missouri/saint-louis/1495-Mason-Ridge-Elementary-School/?utm_source=GSAPI&amp;utm_medium=referral#Reviews,https://www.greatschools.org/missouri/saint-louis/1495-Mason-Ridge-Elementary-School/?utm_source=GSAPI&amp;utm_medium=referral,</school><school>
1679,Meadows Elementary School,public,K-5,308,3,2,Saint Louis,MO,408,Riverview Gardens School District,2926670,"9801 Edgefield Drive, \nSaint Louis, MO  63136",(314) 868-2454,(314) 388-6044,http://www.rgsd.k12.mo.us/,292667001584,38.74682,-90.25148,https://www.greatschools.org/missouri/saint-louis/1679-Meadows-Elementary-School/?utm_source=GSAPI&amp;utm_medium=referral,https://www.greatschools.org/missouri/saint-louis/1679-Meadows-Elementary-School/?utm_source=GSAPI&amp;utm_medium=referral,https://www.greatschools.org/missouri/saint-louis/1679-Meadows-Elementary-School/?utm_source=GSAPI&amp;utm_medium=referral#Reviews,https://www.greatschools.org/missouri/saint-louis/1679-Meadows-Elementary-School/?utm_source=GSAPI&amp;utm_medium=referral,</school><school>
2038,Meramec Elementary School,public,PK-5,231,1,4,Saint Louis,MO,458,St. Louis City School District,2929280,"2745 Meramec Street, \nSaint Louis, MO  63118",(314) 353-7145,(314) 353-6783,http://www.slps.org/Domain/1189,292928001975,38.579845,-90.232346,https://www.greatschools.org/missouri/saint-louis/2038-Meramec-Elementary-School/?utm_source=GSAPI&amp;utm_medium=referral,https://www.greatschools.org/missouri/saint-louis/2038-Meramec-Elementary-School/?utm_source=GSAPI&amp;utm_medium=referral,https://www.greatschools.org/missouri/saint-louis/2038-Meramec-Elementary-School/?utm_source=GSAPI&amp;utm_medium=referral#Reviews,https://www.greatschools.org/missouri/saint-louis/2038-Meramec-Elementary-School/?utm_source=GSAPI&amp;utm_medium=referral,</school><school>
1684,Moline Elementary School,public,K-5,382,3,4,Saint Louis,MO,408,Riverview Gardens School District,2926670,"9865 Winkler Drive, \nSaint Louis, MO  63136",(314) 868-9829,(314) 388-6048,http://molineelem.mo.rge.schoolinsites.com/,292667002701,38.748135,-90.26538,https://www.greatschools.org/missouri/saint-louis/1684-Moline-Elementary-School/?utm_source=GSAPI&amp;utm_medium=referral,https://www.greatschools.org/missouri/saint-louis/1684-Moline-Elementary-School/?utm_source=GSAPI&amp;utm_medium=referral,https://www.greatschools.org/missouri/saint-louis/1684-Moline-Elementary-School/?utm_source=GSAPI&amp;utm_medium=referral#Reviews,https://www.greatschools.org/missouri/saint-louis/1684-Moline-Elementary-School/?utm_source=GSAPI&amp;utm_medium=referral,</school><school>
3032,Monroe Elementary School,public,PK-6,353,1,5,Saint Louis,MO,458,St. Louis City School District,2929280,"3641 Missouri Avenue, \nSaint Louis, MO  63118",(314) 776-7315,(314) 776-7339,http://www.slps.org/Domain/1259,292928002790,38.5881,-90.224976,https://www.greatschools.org/missouri/saint-louis/3032-Monroe-Elementary-School/?utm_source=GSAPI&amp;utm_medium=referral,https://www.greatschools.org/missouri/saint-louis/3032-Monroe-Elementary-School/?utm_source=GSAPI&amp;utm_medium=referral,https://www.greatschools.org/missouri/saint-louis/3032-Monroe-Elementary-School/?utm_source=GSAPI&amp;utm_medium=referral#Reviews,https://www.greatschools.org/missouri/saint-louis/3032-Monroe-Elementary-School/?utm_source=GSAPI&amp;utm_medium=referral,</school><school>
3183,Msb Elementary School,public,K-8,11,,,Saint Louis,MO,537,Mo School For The Blind School District,2900021,"3815 Magnolia Avenue, \nSaint Louis, MO  63110",(314) 776-4320,,http://www.msb.dese.mo.gov,290002103039,38.608315,-90.24455,https://www.greatschools.org/missouri/saint-louis/3183-Msb-Elementary-School/?utm_source=GSAPI&amp;utm_medium=referral,https://www.greatschools.org/missouri/saint-louis/3183-Msb-Elementary-School/?utm_source=GSAPI&amp;utm_medium=referral,https://www.greatschools.org/missouri/saint-louis/3183-Msb-Elementary-School/?utm_source=GSAPI&amp;utm_medium=referral#Reviews,https://www.greatschools.org/missouri/saint-louis/3183-Msb-Elementary-School/?utm_source=GSAPI&amp;utm_medium=referral,</school><school>
1981,Mullanphy Botanical Gardens,public,PK-5,432,2,4,Saint Louis,MO,458,St. Louis City School District,2929280,"4221 Shaw Boulevard, \nSaint Louis, MO  63110",(314) 772-0994,(314) 865-3759,,292928000798,38.617146,-90.254524,https://www.greatschools.org/missouri/saint-louis/1981-Mullanphy-Botanical-Gardens/?utm_source=GSAPI&amp;utm_medium=referral,https://www.greatschools.org/missouri/saint-louis/1981-Mullanphy-Botanical-Gardens/?utm_source=GSAPI&amp;utm_medium=referral,https://www.greatschools.org/missouri/saint-louis/1981-Mullanphy-Botanical-Gardens/?utm_source=GSAPI&amp;utm_medium=referral#Reviews,https://www.greatschools.org/missouri/saint-louis/1981-Mullanphy-Botanical-Gardens/?utm_source=GSAPI&amp;utm_medium=referral,</school><school>
6833,Nahed Chapman New American Academy,public,K-8,196,1,,Saint Louis,MO,458,St. Louis City School District,2929280,"1530 South Grand Boulevard, \nSaint Louis, MO  63104",(314) 776-3285,,,292928003276,38.61968,-90.23828,https://www.greatschools.org/missouri/saint-louis/6833-Nahed-Chapman-New-American-Academy/?utm_source=GSAPI&amp;utm_medium=referral,https://www.greatschools.org/missouri/saint-louis/6833-Nahed-Chapman-New-American-Academy/?utm_source=GSAPI&amp;utm_medium=referral,https://www.greatschools.org/missouri/saint-louis/6833-Nahed-Chapman-New-American-Academy/?utm_source=GSAPI&amp;utm_medium=referral#Reviews,https://www.greatschools.org/missouri/saint-louis/6833-Nahed-Chapman-New-American-Academy/?utm_source=GSAPI&amp;utm_medium=referral,</school><school>
6870,Normandy Kindergarten Center,public,K,,,,Saint Louis,MO,334,Normandy School District,2922650,"3101 Nordic Drive, \nSaint Louis, MO  63121",(314) 493-0140,,,292265003269,38.70909,-90.31922,https://www.greatschools.org/missouri/saint-louis/6870-Normandy-Kindergarten-Center/?utm_source=GSAPI&amp;utm_medium=referral,https://www.greatschools.org/missouri/saint-louis/6870-Normandy-Kindergarten-Center/?utm_source=GSAPI&amp;utm_medium=referral,https://www.greatschools.org/missouri/saint-louis/6870-Normandy-Kindergarten-Center/?utm_source=GSAPI&amp;utm_medium=referral#Reviews,https://www.greatschools.org/missouri/saint-louis/6870-Normandy-Kindergarten-Center/?utm_source=GSAPI&amp;utm_medium=referral,</school><school>
1020,North Glendale Elementary School,public,K-5,586,6,4,Saint Louis,MO,240,Kirkwood R-Vii School District,2916770,"765 North Sappington Road, \nSaint Louis, MO  63122",(314) 213-6130,(314) 213-6173,http://www.kirkwoodschools.org,291677000924,38.59542,-90.38674,https://www.greatschools.org/missouri/saint-louis/1020-North-Glendale-Elementary-School/?utm_source=GSAPI&amp;utm_medium=referral,https://www.greatschools.org/missouri/saint-louis/1020-North-Glendale-Elementary-School/?utm_source=GSAPI&amp;utm_medium=referral,https://www.greatschools.org/missouri/saint-louis/1020-North-Glendale-Elementary-School/?utm_source=GSAPI&amp;utm_medium=referral#Reviews,https://www.greatschools.org/missouri/saint-louis/1020-North-Glendale-Elementary-School/?utm_source=GSAPI&amp;utm_medium=referral,</school><school>
2042,Oak Hill Elementary School,public,PK-5,299,3,3,Saint Louis,MO,458,St. Louis City School District,2929280,"4300 Morganford Road, \nSaint Louis, MO  63116",(314) 481-0420,(314) 481-2371,,292928001986,38.589,-90.26409,https://www.greatschools.org/missouri/saint-louis/2042-Oak-Hill-Elementary-School/?utm_source=GSAPI&amp;utm_medium=referral,https://www.greatschools.org/missouri/saint-louis/2042-Oak-Hill-Elementary-School/?utm_source=GSAPI&amp;utm_medium=referral,https://www.greatschools.org/missouri/saint-louis/2042-Oak-Hill-Elementary-School/?utm_source=GSAPI&amp;utm_medium=referral#Reviews,https://www.greatschools.org/missouri/saint-louis/2042-Oak-Hill-Elementary-School/?utm_source=GSAPI&amp;utm_medium=referral,</school><school>
1217,Oakville Elementary School,public,K-5,441,5,5,Saint Louis,MO,294,Mehlville R-Ix School District,2920670,"2911 Yaeger Road, \nSaint Louis, MO  63129",(314) 467-5800,(314) 467-5899,,292067001116,38.478558,-90.320656,https://www.greatschools.org/missouri/saint-louis/1217-Oakville-Elementary-School/?utm_source=GSAPI&amp;utm_medium=referral,https://www.greatschools.org/missouri/saint-louis/1217-Oakville-Elementary-School/?utm_source=GSAPI&amp;utm_medium=referral,https://www.greatschools.org/missouri/saint-louis/1217-Oakville-Elementary-School/?utm_source=GSAPI&amp;utm_medium=referral#Reviews,https://www.greatschools.org/missouri/saint-louis/1217-Oakville-Elementary-School/?utm_source=GSAPI&amp;utm_medium=referral,</school><school>
1039,Old Bonhomme Elementary School,public,K-4,378,6,4,Saint Louis,MO,246,Ladue School District,2917820,"9661 Old Bonhomme Road, \nSaint Louis, MO  63132",(314) 993-0656,(314) 994-3987,http://www.ladueschools.net/elementary/index.,,,,,,,,
2073,Peabody Elementary School,public,PK-5,241,1,5,Saint Louis,MO,458,St. Louis City School District,2929280,"1224 South 14th Street, \nSaint Louis, MO  63104",(314) 241-1533,(314) 241-2805,http://www.slps.org/Domain/1218,292928002454,38.616833,-90.20505,https://www.greatschools.org/missouri/saint-louis/2073-Peabody-Elementary-School/?utm_source=GSAPI&amp;utm_medium=referral,https://www.greatschools.org/missouri/saint-louis/2073-Peabody-Elementary-School/?utm_source=GSAPI&amp;utm_medium=referral,https://www.greatschools.org/missouri/saint-louis/2073-Peabody-Elementary-School/?utm_source=GSAPI&amp;utm_medium=referral#Reviews,https://www.greatschools.org/missouri/saint-louis/2073-Peabody-Elementary-School/?utm_source=GSAPI&amp;utm_medium=referral,</school><school>
1220,Point Elementary School,public,K-5,517,7,5,Saint Louis,MO,294,Mehlville R-Ix School District,2920670,"6790 Telegraph Road, \nSaint Louis, MO  63129",(314) 467-5900,(314) 467-5999,,292067001119,38.44,-90.32089,https://www.greatschools.org/missouri/saint-louis/1220-Point-Elementary-School/?utm_source=GSAPI&amp;utm_medium=referral,https://www.greatschools.org/missouri/saint-louis/1220-Point-Elementary-School/?utm_source=GSAPI&amp;utm_medium=referral,https://www.greatschools.org/missouri/saint-louis/1220-Point-Elementary-School/?utm_source=GSAPI&amp;utm_medium=referral#Reviews,https://www.greatschools.org/missouri/saint-louis/1220-Point-Elementary-School/?utm_source=GSAPI&amp;utm_medium=referral,</school><school>
1040,Reed Elementary School,public,K-4,421,,5,Saint Louis,MO,246,Ladue School District,2917820,"9060 Ladue Road, \nSaint Louis, MO  63124",(314) 991-1456,(314) 994-3981,http://www.ladueschools.net/elementary/index.php/reed,291782000949,38.652725,-90.3636,https://www.greatschools.org/missouri/saint-louis/1040-Reed-Elementary-School/?utm_source=GSAPI&amp;utm_medium=referral,https://www.greatschools.org/missouri/saint-louis/1040-Reed-Elementary-School/?utm_source=GSAPI&amp;utm_medium=referral,https://www.greatschools.org/missouri/saint-louis/1040-Reed-Elementary-School/?utm_source=GSAPI&amp;utm_medium=referral#Reviews,https://www.greatschools.org/missouri/saint-louis/1040-Reed-Elementary-School/?utm_source=GSAPI&amp;utm_medium=referral,</school><school>
1225,Rogers Elementary School,public,K-5,404,6,5,Saint Louis,MO,294,Mehlville R-Ix School District,2920670,"7700 Fine Road, \nSaint Louis, MO  63129",(314) 467-6300,(314) 467-6399,,292067002683,38.419624,-90.33658,https://www.greatschools.org/missouri/saint-louis/1225-Rogers-Elementary-School/?utm_source=GSAPI&amp;utm_medium=referral,https://www.greatschools.org/missouri/saint-louis/1225-Rogers-Elementary-School/?utm_source=GSAPI&amp;utm_medium=referral,https://www.greatschools.org/missouri/saint-louis/1225-Rogers-Elementary-School/?utm_source=GSAPI&amp;utm_medium=referral#Reviews,https://www.greatschools.org/missouri/saint-louis/1225-Rogers-Elementary-School/?utm_source=GSAPI&amp;utm_medium=referral,</school><school>
1501,Ross Elementary School,public,PK-5,433,6,5,Saint Louis,MO,364,Parkway C-2 School District,2923580,"1150 Ross Avenue, \nSaint Louis, MO  63146",(314) 415-6700,(314) 415-6712,http://www.parkwayschools.net,292358001398,38.68006,-90.4579,https://www.greatschools.org/missouri/saint-louis/1501-Ross-Elementary-School/?utm_source=GSAPI&amp;utm_medium=referral,https://www.greatschools.org/missouri/saint-louis/1501-Ross-Elementary-School/?utm_source=GSAPI&amp;utm_medium=referral,https://www.greatschools.org/missouri/saint-louis/1501-Ross-Elementary-School/?utm_source=GSAPI&amp;utm_medium=referral#Reviews,https://www.greatschools.org/missouri/saint-louis/1501-Ross-Elementary-School/?utm_source=GSAPI&amp;utm_medium=referral,</school><school>
2070,Shaw Visual/Perf. Arts Center,public,PK-5,397,3,4,Saint Louis,MO,458,St. Louis City School District,2929280,"5329 Columbia Avenue, \nSaint Louis, MO  63139",(314) 776-5091,(314) 776-5124,,292928002404,38.611797,-90.27701,https://www.greatschools.org/missouri/saint-louis/2070-Shaw-Visual-Perf.-Arts-Center/?utm_source=GSAPI&amp;utm_medium=referral,https://www.greatschools.org/missouri/saint-louis/2070-Shaw-Visual-Perf.-Arts-Center/?utm_source=GSAPI&amp;utm_medium=referral,https://www.greatschools.org/missouri/saint-louis/2070-Shaw-Visual-Perf.-Arts-Center/?utm_source=GSAPI&amp;utm_medium=referral#Reviews,https://www.greatschools.org/missouri/saint-louis/2070-Shaw-Visual-Perf.-Arts-Center/?utm_source=GSAPI&amp;utm_medium=referral,</school><school>
2047,Shenandoah Elementary School,public,PK-6,219,1,5,Saint Louis,MO,458,St. Louis City School District,2929280,"3412 Shenandoah Avenue, \nSaint Louis, MO  63104",(314) 772-7544,(314) 772-8581,http://www.slps.org/Domain/1485,292928001997,38.609074,-90.23674,https://www.greatschools.org/missouri/saint-louis/2047-Shenandoah-Elementary-School/?utm_source=GSAPI&amp;utm_medium=referral,https://www.greatschools.org/missouri/saint-louis/2047-Shenandoah-Elementary-School/?utm_source=GSAPI&amp;utm_medium=referral,https://www.greatschools.org/missouri/saint-louis/2047-Shenandoah-Elementary-School/?utm_source=GSAPI&amp;utm_medium=referral#Reviews,https://www.greatschools.org/missouri/saint-louis/2047-Shenandoah-Elementary-School/?utm_source=GSAPI&amp;utm_medium=referral,</school><school>
2050,Sigel Elementary Community Ed. Center,public,PK-6,264,2,1,Saint Louis,MO,458,St. Louis City School District,2929280,"2050 Allen Avenue, \nSaint Louis, MO  63104",(314) 771-0010,(314) 771-4527,,292928002000,38.61039,-90.21666,https://www.greatschools.org/missouri/saint-louis/2050-Sigel-Elementary-Community-Ed.-Center/?utm_source=GSAPI&amp;utm_medium=referral,https://www.greatschools.org/missouri/saint-louis/2050-Sigel-Elementary-Community-Ed.-Center/?utm_source=GSAPI&amp;utm_medium=referral,https://www.greatschools.org/missouri/saint-louis/2050-Sigel-Elementary-Community-Ed.-Center/?utm_source=GSAPI&amp;utm_medium=referral#Reviews,https://www.greatschools.org/missouri/saint-louis/2050-Sigel-Elementary-Community-Ed.-Center/?utm_source=GSAPI&amp;utm_medium=referral,</school><school>
1691,Southview,public,K-8,88,2,5,Saint Louis,MO,409,Specl. Sch. Dst. St. Louis County School District,2926760,"11660 Eddie And Park Road, \nSaint Louis, MO  63126",(314) 989-8900,(314) 989-8904,,292676001608,38.54332,-90.381454,https://www.greatschools.org/missouri/saint-louis/1691-Southview/?utm_source=GSAPI&amp;utm_medium=referral,https://www.greatschools.org/missouri/saint-louis/1691-Southview/?utm_source=GSAPI&amp;utm_medium=referral,https://www.greatschools.org/missouri/saint-louis/1691-Southview/?utm_source=GSAPI&amp;utm_medium=referral#Reviews,https://www.greatschools.org/missouri/saint-louis/1691-Southview/?utm_source=GSAPI&amp;utm_medium=referral,</school><school>
2051,St. Louis Children\'s Hospital,public,K-12,18,,1,Saint Louis,MO,458,St. Louis City School District,2929280,"400 South Kingshighway Boulevard, \nSaint Louis, MO  63110",(314) 454-2470,(314) 454-4560,,292928002005,38.63689,-90.26539,https://www.greatschools.org/missouri/saint-louis/2051-St.-Louis-Children\'s-Hospital/?utm_source=GSAPI&amp;utm_medium=referral,https://www.greatschools.org/missouri/saint-louis/2051-St.-Louis-Children\'s-Hospital/?utm_source=GSAPI&amp;utm_medium=referral,https://www.greatschools.org/missouri/saint-louis/2051-St.-Louis-Children\'s-Hospital/?utm_source=GSAPI&amp;utm_medium=referral#Reviews,https://www.greatschools.org/missouri/saint-louis/2051-St.-Louis-Children\'s-Hospital/?utm_source=GSAPI&amp;utm_medium=referral,</school><school>
1986,Stix Early Childhood Center,public,PK-2,504,,5,Saint Louis,MO,458,St. Louis City School District,2929280,"647 Tower Grove Avenue, \nSaint Louis, MO  63110",(314) 533-0874,(314) 533-8262,http://www.slps.org/Domain/1610,292928001590,38.63214,-90.25562,https://www.greatschools.org/missouri/saint-louis/1986-Stix-Early-Childhood-Center/?utm_source=GSAPI&amp;utm_medium=referral,https://www.greatschools.org/missouri/saint-louis/1986-Stix-Early-Childhood-Center/?utm_source=GSAPI&amp;utm_medium=referral,https://www.greatschools.org/missouri/saint-louis/1986-Stix-Early-Childhood-Center/?utm_source=GSAPI&amp;utm_medium=referral#Reviews,https://www.greatschools.org/missouri/saint-louis/1986-Stix-Early-Childhood-Center/?utm_source=GSAPI&amp;utm_medium=referral,</school><school>
1221,Trautwein Elementary School,public,K-5,486,3,5,Saint Louis,MO,294,Mehlville R-Ix School District,2920670,"5011 Ambs Road, \nSaint Louis, MO  63128",(314) 467-6400,(314) 467-6499,,292067001121,38.494392,-90.36847,https://www.greatschools.org/missouri/saint-louis/1221-Trautwein-Elementary-School/?utm_source=GSAPI&amp;utm_medium=referral,https://www.greatschools.org/missouri/saint-louis/1221-Trautwein-Elementary-School/?utm_source=GSAPI&amp;utm_medium=referral,https://www.greatschools.org/missouri/saint-louis/1221-Trautwein-Elementary-School/?utm_source=GSAPI&amp;utm_medium=referral#Reviews,https://www.greatschools.org/missouri/saint-louis/1221-Trautwein-Elementary-School/?utm_source=GSAPI&amp;utm_medium=referral,</school><school>
747,Twillman Elementary School,public,PK-5,350,3,4,Saint Louis,MO,194,Hazelwood School District,2913830,"11831 Bellefontaine Road, \nSaint Louis, MO  63138",(314) 953-4850,(314) 953-4863,,291383000636,38.78497,-90.218605,https://www.greatschools.org/missouri/saint-louis/747-Twillman-Elementary-School/?utm_source=GSAPI&amp;utm_medium=referral,https://www.greatschools.org/missouri/saint-louis/747-Twillman-Elementary-School/?utm_source=GSAPI&amp;utm_medium=referral,https://www.greatschools.org/missouri/saint-louis/747-Twillman-Elementary-School/?utm_source=GSAPI&amp;utm_medium=referral#Reviews,https://www.greatschools.org/missouri/saint-louis/747-Twillman-Elementary-School/?utm_source=GSAPI&amp;utm_medium=referral,</school><school>
2260,W. G. Computer School Elementary,public,K-5,125,7,5,Saint Louis,MO,508,Webster Groves School District,2931530,"701 North Rock Hill Road, \nSaint Louis, MO  63119",(314) 963-6460,(314) 963-6471,,293153002486,38.604733,-90.365685,https://www.greatschools.org/missouri/saint-louis/2260-W.-G.-Computer-School-Elementary/?utm_source=GSAPI&amp;utm_medium=referral,https://www.greatschools.org/missouri/saint-louis/2260-W.-G.-Computer-School-Elementary/?utm_source=GSAPI&amp;utm_medium=referral,https://www.greatschools.org/missouri/saint-louis/2260-W.-G.-Computer-School-Elementary/?utm_source=GSAPI&amp;utm_medium=referral#Reviews,https://www.greatschools.org/missouri/saint-louis/2260-W.-G.-Computer-School-Elementary/?utm_source=GSAPI&amp;utm_medium=referral,</school><school>
2058,Walbridge Elementary Community Ed.,public,PK-6,226,1,,Saint Louis,MO,458,St. Louis City School District,2929280,"5000 Davison Avenue, \nSaint Louis, MO  63120",(314) 383-1829,(314) 383-2292,,292928002015,38.69358,-90.25093,https://www.greatschools.org/missouri/saint-louis/2058-Walbridge-Elementary-Community-Ed./?utm_source=GSAPI&amp;utm_medium=referral,https://www.greatschools.org/missouri/saint-louis/2058-Walbridge-Elementary-Community-Ed./?utm_source=GSAPI&amp;utm_medium=referral,https://www.greatschools.org/missouri/saint-louis/2058-Walbridge-Elementary-Community-Ed./?utm_source=GSAPI&amp;utm_medium=referral#Reviews,https://www.greatschools.org/missouri/saint-louis/2058-Walbridge-Elementary-Community-Ed./?utm_source=GSAPI&amp;utm_medium=referral,</school><school>
587,Walnut Grove Elementary School,public,K-6,463,2,4,Saint Louis,MO,152,Ferguson-Florissant R-Ii School District,2912010,"1248 North Florissant Road, \nSaint Louis, MO  63135",(314) 524-8922,(314) 524-3052,,291201000477,38.76577,-90.31199,https://www.greatschools.org/missouri/saint-louis/587-Walnut-Grove-Elementary-School/?utm_source=GSAPI&amp;utm_medium=referral,https://www.greatschools.org/missouri/saint-louis/587-Walnut-Grove-Elementary-School/?utm_source=GSAPI&amp;utm_medium=referral,https://www.greatschools.org/missouri/saint-louis/587-Walnut-Grove-Elementary-School/?utm_source=GSAPI&amp;utm_medium=referral#Reviews,https://www.greatschools.org/missouri/saint-louis/587-Walnut-Grove-Elementary-School/?utm_source=GSAPI&amp;utm_medium=referral,</school><school>
1349,Washington Elementary School,public,1-6,274,2,3,Saint Louis,MO,334,Normandy School District,2922650,"1730 North Hanley Road, \nSaint Louis, MO  63114",(314) 493-0810,(314) 493-0820,http://www.normandysd.org,292265001249,38.684586,-90.32774,https://www.greatschools.org/missouri/saint-louis/1349-Washington-Elementary-School/?utm_source=GSAPI&amp;utm_medium=referral,https://www.greatschools.org/missouri/saint-louis/1349-Washington-Elementary-School/?utm_source=GSAPI&amp;utm_medium=referral,https://www.greatschools.org/missouri/saint-louis/1349-Washington-Elementary-School/?utm_source=GSAPI&amp;utm_medium=referral#Reviews,https://www.greatschools.org/missouri/saint-louis/1349-Washington-Elementary-School/?utm_source=GSAPI&amp;utm_medium=referral,</school><school>
2079,Washington Montessori,public,PK-5,405,2,4,Saint Louis,MO,458,St. Louis City School District,2929280,"1130 North Euclid Avenue, \nSaint Louis, MO  63113",(314) 361-0432,(314) 361-2760,,292928002572,38.656925,-90.25854,https://www.greatschools.org/missouri/saint-louis/2079-Washington-Montessori/?utm_source=GSAPI&amp;utm_medium=referral,https://www.greatschools.org/missouri/saint-louis/2079-Washington-Montessori/?utm_source=GSAPI&amp;utm_medium=referral,https://www.greatschools.org/missouri/saint-louis/2079-Washington-Montessori/?utm_source=GSAPI&amp;utm_medium=referral#Reviews,https://www.greatschools.org/missouri/saint-louis/2079-Washington-Montessori/?utm_source=GSAPI&amp;utm_medium=referral,</school><school>
2083,Wilkinson Early Childhood Center,public,PK-2,241,,5,Saint Louis,MO,458,St. Louis City School District,2929280,"1921 Prather Avenue, \nSaint Louis, MO  63139",(314) 645-1202,(314) 645-2618,http://www.slps.org/Domain/1741,292928002646,38.621914,-90.30455,https://www.greatschools.org/missouri/saint-louis/2083-Wilkinson-Early-Childhood-Center/?utm_source=GSAPI&amp;utm_medium=referral,https://www.greatschools.org/missouri/saint-louis/2083-Wilkinson-Early-Childhood-Center/?utm_source=GSAPI&amp;utm_medium=referral,https://www.greatschools.org/missouri/saint-louis/2083-Wilkinson-Early-Childhood-Center/?utm_source=GSAPI&amp;utm_medium=referral#Reviews,https://www.greatschools.org/missouri/saint-louis/2083-Wilkinson-Early-Childhood-Center/?utm_source=GSAPI&amp;utm_medium=referral,</school><school>
1527,Willow Brook Elementary School,public,PK-5,447,7,5,Saint Louis,MO,367,Pattonville R-Iii School District,2923700,"11022 Schuetz Road, \nSaint Louis, MO  63146",(314) 213-8018,(314) 213-8618,,292370001423,38.683884,-90.409424,https://www.greatschools.org/missouri/saint-louis/1527-Willow-Brook-Elementary-School/?utm_source=GSAPI&amp;utm_medium=referral,https://www.greatschools.org/missouri/saint-louis/1527-Willow-Brook-Elementary-School/?utm_source=GSAPI&amp;utm_medium=referral,https://www.greatschools.org/missouri/saint-louis/1527-Willow-Brook-Elementary-School/?utm_source=GSAPI&amp;utm_medium=referral#Reviews,https://www.greatschools.org/missouri/saint-louis/1527-Willow-Brook-Elementary-School/?utm_source=GSAPI&amp;utm_medium=referral,</school><school>
3005,Woerner Elementary School,public,PK-5,404,2,4,Saint Louis,MO,458,St. Louis City School District,2929280,"6131 Leona Street, \nSaint Louis, MO  63116",(314) 481-8585,(314) 351-2272,http://www.slps.org/Domain/1789,292928002829,38.569473,-90.268974,https://www.greatschools.org/missouri/saint-louis/3005-Woerner-Elementary-School/?utm_source=GSAPI&amp;utm_medium=referral,https://www.greatschools.org/missouri/saint-louis/3005-Woerner-Elementary-School/?utm_source=GSAPI&amp;utm_medium=referral,https://www.greatschools.org/missouri/saint-louis/3005-Woerner-Elementary-School/?utm_source=GSAPI&amp;utm_medium=referral#Reviews,https://www.greatschools.org/missouri/saint-louis/3005-Woerner-Elementary-School/?utm_source=GSAPI&amp;utm_medium=referral,</school><school>
1223,Wohlwend Elementary School,public,K-5,425,4,5,Saint Louis,MO,294,Mehlville R-Ix School District,2920670,"5966 Telegraph Road, \nSaint Louis, MO  63129",(314) 467-6500,(314) 467-6599,,292067001124,38.459507,-90.30453,https://www.greatschools.org/missouri/saint-louis/1223-Wohlwend-Elementary-School/?utm_source=GSAPI&amp;utm_medium=referral,https://www.greatschools.org/missouri/saint-louis/1223-Wohlwend-Elementary-School/?utm_source=GSAPI&amp;utm_medium=referral,https://www.greatschools.org/missouri/saint-louis/1223-Wohlwend-Elementary-School/?utm_source=GSAPI&amp;utm_medium=referral#Reviews,https://www.greatschools.org/missouri/saint-louis/1223-Wohlwend-Elementary-School/?utm_source=GSAPI&amp;utm_medium=referral,</school><school>
2063,Woodward Elementary School,public,PK-5,319,1,3,Saint Louis,MO,458,St. Louis City School District,2929280,"725 Bellerive Boulevard, \nSaint Louis, MO  63111",(314) 353-1346,(314) 353-5768,,292928002026,38.565735,-90.25004,https://www.greatschools.org/missouri/saint-louis/2063-Woodward-Elementary-School/?utm_source=GSAPI&amp;utm_medium=referral,https://www.greatschools.org/missouri/saint-louis/2063-Woodward-Elementary-School/?utm_source=GSAPI&amp;utm_medium=referral,https://www.greatschools.org/missouri/saint-louis/2063-Woodward-Elementary-School/?utm_source=GSAPI&amp;utm_medium=referral#Reviews,https://www.greatschools.org/missouri/saint-louis/2063-Woodward-Elementary-School/?utm_source=GSAPI&amp;utm_medium=referral,</school></schools>'
,,,,,,,,,,,,,,,,,,,,,,,
,,,,,,,,,,,,,,,,,,,,,,,
,,,,,,,,,,,,,,,,,,,,,,,
,,,,,,,,,,,,,,,,,,,,,,,
,,,,,,,,,,,,,,,,,,,,,,,
,,,,,,,,,,,,,,,,,,,,,,,
,,,,,,,,,,,,,,,,,,,,,,,
,,,,,,,,,,,,,,,,,,,,,,,
,,,,,,,,,,,,,,,,,,,,,,,
,,,,,,,,,,,,,,,,,,,,,,,
,,,,,,,,,,,,,,,,,,,,,,,
,,,,,,,,,,,,,,,,,,,,,,,
,,,,,,,,,,,,,,,,,,,,,,,
,,,,,,,,,,,,,,,,,,,,,,,
,,,,,,,,,,,,,,,,,,,,,,,
,,,,,,,,,,,,,,,,,,,,,,,
,,,,,,,,,,,,,,,,,,,,,,,
,,,,,,,,,,,,,,,,,,,,,,,
,,,,,,,,,,,,,,,,,,,,,,,
,</enrollment><parentRating>4,,,,,,,,,,,,,,,,,,,,,,
